[{"OBJECT_NAME":"JILIN-1 GAOFEN 2B","OBJECT_ID":"2019-086A","EPOCH":"2026-03-09T22:43:01.900128","MEAN_MOTION":15.19449314,"ECCENTRICITY":0.001314,"INCLINATION":97.496,"RA_OF_ASC_NODE":141.6146,"ARG_OF_PERICENTER":308.9475,"MEAN_ANOMALY":51.0588,"EPHEMERIS_TYPE":0,"CLASSIFICATION_TYPE":"U","NORAD_CAT_ID":44836,"ELEMENT_SET_NO":999,"REV_AT_EPOCH":34541,"BSTAR":0.00041762488,"MEAN_MOTION_DOT":8.807e-5,"MEAN_MOTION_DDOT":0},{"OBJECT_NAME":"SITRO-AIS-58","OBJECT_ID":"2025-313L","EPOCH":"2026-03-09T21:15:14.278752","MEAN_MOTION":15.21328621,"ECCENTRICITY":0.00155462,"INCLINATION":97.3997,"RA_OF_ASC_NODE":145.1005,"ARG_OF_PERICENTER":357.6289,"MEAN_ANOMALY":2.487,"EPHEMERIS_TYPE":0,"CLASSIFICATION_TYPE":"U","NORAD_CAT_ID":67258,"ELEMENT_SET_NO":999,"REV_AT_EPOCH":1084,"BSTAR":0.00053688387,"MEAN_MOTION_DOT":0.00011999,"MEAN_MOTION_DDOT":0}]
